NORAD_CAT_ID,OBJECT_NAME,OBJECT_TYPE,EPOCH,MEAN_MOTION,ECCENTRICITY,INCLINATION,RA_OF_ASC_NODE,ARG_OF_PERICENTER,MEAN_ANOMALY,BSTAR,MEAN_MOTION_DOT,MEAN_MOTION_DDOT,TLE_LINE0,TLE_LINE1,TLE_LINE2,SEMIMAJOR_AXIS,PERIOD,APOGEE,PERIGEE,DECAYED
54791.0,STARLINK-5425,PAYLOAD,2023-01-30 14:52:42,15.73217074,0.000129,53.2171,89.3405,85.5228,274.594,1.745e-06,-3.75e-06,0.0,0 STARLINK-5425,1 54791U 22175AK  23030.61993961 -.00000375  00000-0  17450-5 0  9993,2 54791  53.2171  89.3405 0001290  85.5228 274.5940 15.73217074  6631,6727.846,91.532,350.579,348.844,0.0
54791.0,STARLINK-5425,PAYLOAD,2023-01-30 20:58:38,15.73208885,0.0001249,53.2173,88.0847,78.6692,281.4469,-7.7227e-06,-1.704e-05,0.0,0 STARLINK-5425,1 54791U 22175AK  23030.87405744 -.00001704  00000-0 -77227-5 0  9994,2 54791  53.2173  88.0847 0001249  78.6692 281.4469 15.73208885  8838,6727.87,91.533,350.575,348.895,0.0
54791.0,STARLINK-5425,PAYLOAD,2023-01-31 10:41:58,15.73194435,0.000187,53.2164,85.2549,56.8174,303.3025,-1.7009e-05,-3.007e-05,0.0,0 STARLINK-5425,1 54791U 22175AK  23031.44581183 -.00003007  00000-0 -17009-4 0  9999,2 54791  53.2164  85.2549 0001870  56.8174 303.3025 15.73194435  6766,6727.911,91.534,351.034,348.518,0.0
54791.0,STARLINK-5425,PAYLOAD,2023-01-31 13:44:55,15.732005,0.0001382,53.2159,84.6247,76.2284,283.889,-8.5107e-06,-1.814e-05,0.0,0 STARLINK-5425,1 54791U 22175AK  23031.57286363 -.00001814  00000-0 -85107-5 0  9994,2 54791  53.2159  84.6247 0001382  76.2284 283.8890 15.73200500  8949,6727.894,91.533,350.689,348.829,0.0
54791.0,STARLINK-5425,PAYLOAD,2023-02-01 06:00:00,15.73224902,0.0001486,53.2158,81.2751,90.1154,147.2931,-0.00046189,-0.00065014,0.0,0 STARLINK-5425,1 54791U 22175AK  23032.25001157 -.00065014  00000-0 -46189-3 0  9993,2 54791  53.2158  81.2751 0001486  90.1154 147.2931 15.73224902  6889,6727.824,91.532,350.689,348.689,0.0
54791.0,STARLINK-5425,PAYLOAD,2023-02-01 14:00:01,15.73298834,0.000121,53.2156,79.6273,69.9249,256.3871,-0.0022421,-0.00305418,0.0,0 STARLINK-5425,1 54791U 22175AK  23032.58334491 -.00305418  00000-0 -22421-2 0  9996,2 54791  53.2156  79.6273 0001210  69.9249 256.3871 15.73298834  1303,6727.613,91.527,350.292,348.664,0.0
54791.0,STARLINK-5425,PAYLOAD,2023-02-01 22:00:00,15.73070449,9.77e-05,53.2157,77.9758,84.9112,330.3482,-0.0067765,-0.00855273,0.0,0 STARLINK-5425,1 54791U 22175AK  23032.91667824 -.00855273  00000-0 -67765-2 0  9991,2 54791  53.2157  77.9758 0000977  84.9112 330.3482 15.73070449  6999,6728.265,91.541,350.787,349.472,0.0
54791.0,STARLINK-5425,PAYLOAD,2023-02-02 13:01:16,15.72724778,0.0001283,53.2158,74.8819,41.1494,318.9623,-0.00067834,-0.00092877,0.0,0 STARLINK-5425,1 54791U 22175AK  23033.54255462 -.00092877  00000-0 -67834-3 0  9993,2 54791  53.2158  74.8819 0001283  41.1494 318.9623 15.72724778  9254,6729.25,91.561,351.979,350.252,0.0
54791.0,STARLINK-5425,PAYLOAD,2023-02-02 22:10:44,15.72043247,0.0001492,53.2158,72.999,6.0809,354.0229,-0.0017503,-0.00228193,0.0,0 STARLINK-5425,1 54791U 22175AK  23033.92412496 -.00228193  00000-0 -17503-2 0  9996,2 54791  53.2158  72.9990 0001492   6.0809 354.0229 15.72043247  7150,6731.195,91.601,354.064,352.056,0.0
54791.0,STARLINK-5425,PAYLOAD,2023-02-03 14:00:01,15.69834188,0.0001307,53.2151,69.7513,77.1517,52.2922,-0.0080592,-0.00883408,0.0,0 STARLINK-5425,1 54791U 22175AK  23034.58334491 -.00883408  00000-0 -80592-2 0  9991,2 54791  53.2151  69.7513 0001307  77.1517  52.2922 15.69834188  7254,6737.508,91.729,360.254,358.493,0.0
54791.0,STARLINK-5425,PAYLOAD,2023-02-04 00:00:00,15.69008832,0.0001116,53.2149,67.6987,94.6877,230.2553,-0.0082038,-0.00870163,0.0,0 STARLINK-5425,1 54791U 22175AK  23035.00001157 -.00870163  00000-0 -82038-2 0  9990,2 54791  53.2149  67.6987 0001116  94.6877 230.2553 15.69008832  1301,6739.871,91.778,362.488,360.984,0.0
54791.0,STARLINK-5425,PAYLOAD,2023-02-04 06:00:00,15.68551766,0.0001258,53.2148,66.4709,90.0721,207.5705,-0.0089806,-0.00942717,0.0,0 STARLINK-5425,1 54791U 22175AK  23035.25001157 -.00942717  00000-0 -89806-2 0  9992,2 54791  53.2148  66.4709 0001258  90.0721 207.5705 15.68551766  7360,6741.18,91.804,363.893,362.197,0.0
54791.0,STARLINK-5425,PAYLOAD,2023-02-04 14:00:01,15.67889547,0.0001133,53.2141,64.8346,73.4661,307.1021,-0.0088835,-0.00910417,0.0,0 STARLINK-5425,1 54791U 22175AK  23035.58334491 -.00910417  00000-0 -88835-2 0  9991,2 54791  53.2141  64.8346 0001133  73.4661 307.1021 15.67889547  1308,6743.078,91.843,365.707,364.179,0.0
54791.0,STARLINK-5425,PAYLOAD,2023-02-04 22:00:00,15.67207721,0.0001155,53.2143,63.1968,88.2486,14.4788,-0.0086724,-0.00855537,0.0,0 STARLINK-5425,1 54791U 22175AK  23035.91667824 -.00855537  00000-0 -86724-2 0  9993,2 54791  53.2143  63.1968 0001155  88.2486  14.4788 15.67207721  1301,6745.034,91.883,367.678,366.12,0.0
54791.0,STARLINK-5425,PAYLOAD,2023-02-05 14:00:01,15.65952029,0.0001124,53.2143,59.9316,80.8368,183.8767,-0.009879,-0.00933215,0.0,0 STARLINK-5425,1 54791U 22175AK  23036.58335648 -.00933215  00000-0 -98790-2 0  9999,2 54791  53.2143  59.9316 0001124  80.8368 183.8767 15.65952029  7562,6748.639,91.957,371.263,369.746,0.0
54791.0,STARLINK-5425,PAYLOAD,2023-02-05 22:00:00,15.65252735,9.55e-05,53.2145,58.2985,88.6803,255.7872,-0.009319,-0.00862214,0.0,0 STARLINK-5425,1 54791U 22175AK  23036.91667824 -.00862214  00000-0 -93190-2 0  9999,2 54791  53.2145  58.2985 0000955  88.6803 255.7872 15.65252735  1308,6750.649,91.998,373.159,371.869,0.0
54791.0,STARLINK-5425,PAYLOAD,2023-02-06 14:00:01,15.64001742,0.000122,53.2139,55.0428,72.2814,69.4126,-0.010765,-0.00939707,0.0,0 STARLINK-5425,1 54791U 22175AK  23037.58334491 -.00939707  00000-0 -10765-1 0  9992,2 54791  53.2139  55.0428 0001220  72.2814  69.4126 15.64001742  1306,6754.248,92.072,376.937,375.289,0.0
54791.0,STARLINK-5425,PAYLOAD,2023-02-06 22:00:00,15.63306234,0.000118,53.2138,53.4146,92.1529,127.0094,-0.010185,-0.00871179,0.0,0 STARLINK-5425,1 54791U 22175AK  23037.91667824 -.00871179  00000-0 -10185-1 0  9992,2 54791  53.2138  53.4146 0001180  92.1529 127.0094 15.63306234  7778,6756.251,92.112,378.914,377.319,0.0
54791.0,STARLINK-5425,PAYLOAD,2023-02-07 14:00:01,15.6206048,0.0001007,53.214,50.1685,73.2146,298.4806,-0.011899,-0.00959884,0.0,0 STARLINK-5425,1 54791U 22175AK  23038.58334491 -.00959884  00000-0 -11899-1 0  9990,2 54791  53.2140  50.1685 0001007  73.2146 298.4806 15.62060480  7881,6759.843,92.186,382.389,381.027,0.0
54791.0,STARLINK-5425,PAYLOAD,2023-02-07 22:00:00,15.61347484,0.0001177,53.2145,48.5448,86.0541,0.7675,-0.010876,-0.00862272,0.0,0 STARLINK-5425,1 54791U 22175AK  23038.91667824 -.00862272  00000-0 -10876-1 0  9994,2 54791  53.2145  48.5448 0001177  86.0541   0.7675 15.61347484  1303,6761.901,92.228,384.562,382.97,0.0
54791.0,STARLINK-5425,PAYLOAD,2023-02-08 06:00:00,15.60714168,0.0001341,53.2146,46.9262,81.1552,79.984,-0.011714,-0.00902324,0.0,0 STARLINK-5425,1 54791U 22175AK  23039.25001157 -.00902324  00000-0 -11714-1 0  9998,2 54791  53.2146  46.9262 0001341  81.1552  79.9840 15.60714168  7989,6763.73,92.265,386.502,384.688,0.0
54791.0,STARLINK-5425,PAYLOAD,2023-02-08 14:00:01,15.60110336,0.0001077,53.2145,45.308,79.8563,154.8036,-0.013005,-0.00971324,0.0,0 STARLINK-5425,1 54791U 22175AK  23039.58334491 -.00971324  00000-0 -13005-1 0  9995,2 54791  53.2145  45.3080 0001077  79.8563 154.8036 15.60110336  1308,6765.475,92.301,388.069,386.611,0.0
54791.0,STARLINK-5425,PAYLOAD,2023-02-08 22:00:00,15.5940103,0.0001136,53.2146,43.6894,92.321,215.1136,-0.011807,-0.00867776,0.0,0 STARLINK-5425,1 54791U 22175AK  23039.91667824 -.00867776  00000-0 -11807-1 0  9994,2 54791  53.2146  43.6894 0001136  92.3210 215.1136 15.59401030  1302,6767.526,92.343,390.16,388.623,0.0
54791.0,STARLINK-5425,PAYLOAD,2023-02-09 06:00:00,15.5876763,0.000128,53.2145,42.076,80.4492,298.9575,-0.012749,-0.00910443,0.0,0 STARLINK-5425,1 54791U 22175AK  23040.25001157 -.00910443  00000-0 -12749-1 0  9990,2 54791  53.2145  42.0760 0001280  80.4492 298.9575 15.58767630  8141,6769.36,92.381,392.091,390.358,0.0
54791.0,STARLINK-5425,PAYLOAD,2023-02-09 12:00:00,15.58287233,0.0001161,53.214,40.8661,77.8549,265.0117,-0.012946,-0.0090797,0.0,0 STARLINK-5425,1 54791U 22175AK  23040.50001157 -.00907970  00000-0 -12946-1 0  9998,2 54791  53.2140  40.8661 0001161  77.8549 265.0117 15.58287233  1307,6770.751,92.409,393.402,391.83,0.0
54791.0,STARLINK-5425,PAYLOAD,2023-02-09 22:00:00,15.57461683,0.0001357,53.2142,38.8485,93.4072,67.6004,-0.013082,-0.0089096,0.0,0 STARLINK-5425,1 54791U 22175AK  23040.91667824 -.00890960  00000-0 -13082-1 0  9994,2 54791  53.2142  38.8485 0001357  93.4072  67.6004 15.57461683  1305,6773.143,92.458,395.927,394.089,0.0
54791.0,STARLINK-5425,PAYLOAD,2023-02-10 02:00:01,15.57166531,0.0001186,53.2145,38.0438,93.4281,282.4834,-0.0141,-0.00944146,0.0,0 STARLINK-5425,1 54791U 22175AK  23041.08334491 -.00944146  00000-0 -14100-1 0  9992,2 54791  53.2145  38.0438 0001186  93.4281 282.4834 15.57166531  8275,6773.999,92.476,396.667,395.061,0.0
54791.0,STARLINK-5425,PAYLOAD,2023-02-10 04:00:00,15.56984726,0.0001298,53.2144,37.6417,85.5799,37.7237,-0.013836,-0.00922367,0.0,0 STARLINK-5425,1 54791U 22175AK  23041.16667824 -.00922367  00000-0 -13836-1 0  9996,2 54791  53.2144  37.6417 0001298  85.5799  37.7237 15.56984726  1304,6774.526,92.486,397.271,395.512,0.0
54791.0,STARLINK-5425,PAYLOAD,2023-02-10 18:00:00,15.55823946,0.0001313,53.215,34.8254,89.5072,64.1115,-0.013795,-0.00884195,0.0,0 STARLINK-5425,1 54791U 22175AK  23041.75001157 -.00884195  00000-0 -13795-1 0  9992,2 54791  53.2150  34.8254 0001313  89.5072  64.1115 15.55823946  8373,6777.896,92.555,400.651,398.871,0.0
54791.0,STARLINK-5425,PAYLOAD,2023-02-10 22:00:00,15.55504223,0.0001216,53.2149,34.0214,95.813,271.7337,-0.013968,-0.00884629,0.0,0 STARLINK-5425,1 54791U 22175AK  23041.91667824 -.00884629  00000-0 -13968-1 0  9993,2 54791  53.2149  34.0214 0001216  95.8130 271.7337 15.55504223  1308,6778.824,92.574,401.514,399.865,0.0
